address,city,country,keys,latitude,longitude,name,postalCode,province,websites
324 Main St,Massena,US,us/ny/massena/324mainst/-1161002137,44.9213,-74.89021,McDonald's,13662,NY,"http://mcdonalds.com,http://www.mcdonalds.com/?cid=RF:YXT_FM:TP::Yext:Referral"
530 Clinton Ave,Washington Court House,US,us/oh/washingtoncourthouse/530clintonave/-791445730,39.53255,-83.44526,Wendy's,43160,OH,http://www.wendys.com
408 Market Square Dr,Maysville,US,us/ky/maysville/408marketsquaredr/1051460804,38.62736,-83.79141,Frisch's Big Boy,41056,KY,"http://www.frischs.com,https://www.frischs.com/location/maysville-ky/"
6098 State Highway 37,Massena,US,us/ny/massena/6098statehighway37/-1161002137,44.95008,-74.84553,McDonald's,13662,NY,"http://mcdonalds.com,http://www.mcdonalds.com/?cid=RF:YXT_FM:TP::Yext:Referral"
139 Columbus Rd,Athens,US,us/oh/athens/139columbusrd/990890980,39.35155,-82.09728,OMG! Rotisserie,45701,OH,"http://www.omgrotisserie.com,http://omgrotisserie.com"
4182 Tonya Trl,Hamilton,US,us/oh/hamilton/4182tonyatrl/-1055723171,39.4176,-84.47641,Domino's Pizza,45011,OH,"https://www.dominos.com/en/?redirect=homepage,https://www.dominos.com/en/?redirect=homepageandutm_source=locallistingsandutm_medium=loclistandutm_campaign=localmaps,https://www.dominos.com/en/?redirect=homepageandutm_source=yextandutm_medium=loclistandutm_campaign=localmaps"
590 S Main St,Englewood,US,us/oh/englewood/590smainst/-1055723171,39.86969,-84.29358,Domino's Pizza,45322,OH,"https://www.dominos.com/en/?redirect=homepageandutm_source=locallistingsandutm_medium=loclistandutm_campaign=localmaps,https://www.dominos.com/en/?redirect=homepageandutm_source=yextandutm_medium=loclistandutm_campaign=localmaps"
401 N Jennings St,Saluda,US,us/sc/saluda/401njenningsst/-1161002137,34.00598,-81.7704,McDonald's,29138,SC,http://www.mcdonalds.com
205 W Church St,Batesburg,US,us/sc/batesburg/205wchurchst/-791445730,33.91335,-81.5333,Wendy's,29006,SC,http://www.wendys.com
2711 W. Kings Highway Ste. 18,Paragould,US,us/ar/paragould/2711wkingshighwayste18/-66712705,36.06107,-90.52325,Pizza Hut,72450,AR,http://www.pizzahut.com
613 W Center St,Sheridan,US,us/ar/sheridan/613wcenterst/1780593795,34.30687,-92.40784,SONIC Drive In,72150,AR,https://locations.sonicdrivein.com/ar/sheridan/613-w--center-street.html
512 Highway 425 S Lot B,Monticello,US,us/ar/monticello/512highway425slotb/-1055723171,33.61937,-91.80232,Domino's Pizza,71655,AR,"https://www.dominos.com/en/?redirect=homepage,https://www.dominos.com/en/?redirect=homepageandutm_source=locallistingsandutm_medium=loclistandutm_campaign=localmaps"
1535 NW 50th St,Oklahoma City,US,us/ok/oklahomacity/1535nw50thst/-1161002137,35.52234,-97.5382,McDonald's,73118,OK,"http://mcdonalds.com,http://www.mcdonalds.com/?cid=RF:YXT_FM:TP::Yext:Referral"
125 Towne Center Dr,Lexington,US,us/ky/lexington/125townecenterdr/-1055723171,38.06753,-84.53043,Domino's Pizza,40511,KY,"https://www.dominos.com/en/?redirect=homepageandutm_source=locallistingsandutm_medium=loclistandutm_campaign=localmaps,https://www.dominos.com/en/?redirect=homepage,https://www.dominos.com/en/?redirect=homepageandutm_source=yextandutm_medium=loclistandutm_campaign=localmaps"
66 14th St.,Tell City,US,us/in/tellcity/6614thst/1516016543,37.941032,-86.762115,Long John Silver's,47586,IN,http://www.ljsilvers.com
301 University Blvd,Louisville,US,us/ky/louisville/301universityblvd/-1161002137,38.21999,-85.764824,McDonald's,40208,KY,"http://mcdonalds.com,http://www.mcdonalds.com/?cid=RF:YXT_FM:TP::Yext:Referral"
5812 NW Expressway,Oklahoma City,US,us/ok/oklahomacity/5812nwexpressway/-1161002137,35.54815,-97.61717,McDonald's,73132,OK,"http://mcdonalds.com,http://www.mcdonalds.com/?cid=RF:YXT_FM:TP::Yext:Referral"
101 Thomas Garst Ln,Leland,US,us/nc/leland/101thomasgarstln/-864103396,34.23389,-77.99544,Taco Bell,28451,NC,"http://www.tacobell.com,https://locations.tacobell.com/nc/leland/101-thomas-garst-lane.html?utm_source=yextandutm_campaign=yextpowerlistingsandutm_medium=referralandutm_term=030564andutm_content=website"
1111 New Pointe Blvd,Leland,US,us/nc/leland/1111newpointeblvd/-1161002137,34.21188,-78.02454,McDonald's,28451,NC,"http://mcdonalds.com,http://www.mcdonalds.com/?cid=RF:YXT_FM:TP::Yext:Referral"
782 Old Hickory Blvd Ste 120,Brentwood,US,us/tn/brentwood/782oldhickoryblvdste120/-722952174,36.04222,-86.77995,Qdoba Mexican Grill,37027,TN,"http://www.qdoba.com,https://locations.qdoba.com/us/tn/brentwood/782-old-hickory-blvd.html"
108 Village Rd NE,Leland,US,us/nc/leland/108villagerdne/-1161002137,34.234477,-78.000649,McDonald's,28451,NC,"http://mcdonalds.com,http://www.mcdonalds.com/?cid=RF:YXT_FM:TP::Yext:Referral"
1116 Old Highway 60,Hardinsburg,US,us/ky/hardinsburg/1116oldhighway60/-1161002137,37.792641,-86.492762,McDonald's,40143,KY,"http://mcdonalds.com,http://www.mcdonalds.com/?cid=RF:YXT_FM:TP::Yext:Referral"
1423 Southwest Pkwy,Wichita Falls,US,us/tx/wichitafalls/1423southwestpkwy/-1161002137,33.85371,-98.50065,McDonald's,76302,TX,"http://www.mcdonalds.com/?cid=RF:YXT_FM:TP::Yext:Referral,http://mcdonalds.com"
908 Padre Blvd,South Padre Island,US,us/tx/southpadreisland/908padreblvd/-1161002137,26.09105,-97.1643,McDonald's,78597,TX,"http://www.mcdonalds.com/?cid=RF:YXT_FM:TP::Yext:Referral,http://mcdonalds.com"
1131n N Main St,Miami,US,us/ok/miami/1131nnmainst/-1161002137,36.88826,-94.87766,McDonald's,74354,OK,"http://www.mcdonalds.com/?cid=RF:YXT_FM:TP::Yext:Referral,http://mcdonalds.com"
3401 Hwy 165 North,Pineville,US,us/la/pineville/3401hwy165north/-66712705,31.3626,-92.41343,Pizza Hut,71360,LA,http://www.pizzahut.com
1631 E Madison Ave,Bastrop,US,us/la/bastrop/1631emadisonave/1780593795,32.77992,-91.89477,Sonic Drive-In,71220,LA,https://locations.sonicdrivein.com/la/bastrop/1631-e--madison.html
301 S Lynn Riggs Blvd,Claremore,US,us/ok/claremore/301slynnriggsblvd/-1055723171,36.31069,-95.61759,Domino's Pizza,74017,OK,"https://www.dominos.com/en/?redirect=homepage,https://www.dominos.com/en/?redirect=homepageandutm_source=locallistingsandutm_medium=loclistandutm_campaign=localmaps"
601 E Lincolnway,Minerva,US,us/oh/minerva/601elincolnway/-1161002137,40.732,-81.09812,McDonald's,44657,OH,"http://www.mcdonalds.com,http://www.mcdonalds.com/?cid=RF:YXT_FM:TP::Yext:Referral"
3211 S 4th St,Leavenworth,US,us/ks/leavenworth/3211s4thst/1780593795,39.28532,-94.90441,SONIC Drive In,66048,KS,https://locations.sonicdrivein.com/ks/leavenworth/3211-s-fourth-street.html
105 Business Loop W,Jamestown,US,us/nd/jamestown/105businessloopw/-864103396,46.898997,-98.707788,Taco Bell,58401,ND,"http://www.tacobell.com,https://locations.tacobell.com/nd/jamestown/105-business-loop-west.html?utm_source=yextandutm_campaign=yextpowerlistingsandutm_medium=referralandutm_term=019434andutm_content=website"
1531 University Dr S,Fargo,US,us/nd/fargo/1531universitydrs/-1055723171,46.85659,-96.79863,Domino's Pizza,58103,ND,"https://www.dominos.com/en/?redirect=homepage,https://www.dominos.com/en/?redirect=homepageandutm_source=locallistingsandutm_medium=loclistandutm_campaign=localmaps,https://www.dominos.com/en/?redirect=homepageandutm_source=yextandutm_medium=loclistandutm_campaign=localmaps"
718 10th St SE,Jamestown,US,us/nd/jamestown/71810thstse/-1009719089,46.89896,-98.6984,Taco John's,58401,ND,"https://www.tacojohns.com,http://locations.tacojohns.com/nd/jamestown/718-10th-street-se.html"
1400 24th Ave SW,Minot,US,us/nd/minot/140024thavesw/-1161002137,48.20858,-101.3128,McDonald's,58701,ND,"http://mcdonalds.com,http://www.mcdonalds.com/?cid=RF:YXT_FM:TP::Yext:Referral"
703 S Magnolia St,Woodville,US,us/tx/woodville/703smagnoliast/1832448210,30.76846,-94.41477,Whataburger,75979,TX,"https://locations.whataburger.com/tx/woodville/703-s--magnolia.html/?utm_source=yextpagesandutm_medium=locallistingsandutm_campaign=yextpages,https://locations.whataburger.com/tx/woodville/703-s--magnolia.html/"
1535 S Broadway,Minot,US,us/nd/minot/1535sbroadway/-66712705,48.219459,-101.296022,Pizza Hut,58701,ND,http://www.pizzahut.com
775 S Main St,Smithfield,US,us/ut/smithfield/775smainst/-1055723171,41.82069,-111.83318,Domino's Pizza,84335,UT,"https://www.dominos.com/en/?redirect=homepageandutm_source=locallistingsandutm_medium=loclistandutm_campaign=localmaps,https://www.dominos.com/en/?redirect=homepage,https://www.dominos.com/en/?redirect=homepageandutm_source=yextandutm_medium=loclistandutm_campaign=localmaps"
218 W Main St,Ada,US,us/ok/ada/218wmainst/-1173852384,34.77482,-96.68126,Hamburger King,74820,OK,
3208 S Elm Pl,Broken Arrow,US,us/ok/brokenarrow/3208selmpl/1780593795,36.01948,-95.79756,SONIC Drive In,74012,OK,https://locations.sonicdrivein.com/ok/broken-arrow/3208-s-elm-place.html
3056 Classen Blvd Unit A,Norman,US,us/ok/norman/3056classenblvdunita/-1055723171,35.18173,-97.41709,Domino's Pizza,73071,OK,"https://www.dominos.com/en/?redirect=homepage,https://www.dominos.com/en/?redirect=homepageandutm_source=locallistingsandutm_medium=loclistandutm_campaign=localmaps,https://www.dominos.com/en/?redirect=homepageandutm_source=yextandutm_medium=loclistandutm_campaign=localmaps"
982 Macon St,Warner Robins,US,us/ga/warnerrobins/982maconst/-2061630068,32.59495,-83.58338,Burger King,31098,GA,"http://www.bk.com,https://locations.bk.com/ga/warner-robins/982-macon-st.html,https://www.bk.com"
6060 San Mateo Blvd NE,Albuquerque,US,us/nm/albuquerque/6060sanmateoblvdne/-2061630068,35.144456,-106.585927,Burger King,87109,NM,"http://www.bk.com,https://locations.bk.com/nm/albuquerque/6060-san-mateo-ne.html,https://www.bk.com"
8401 Gateway Blvd W Ste M4,El Paso,US,us/tx/elpaso/8401gatewayblvdwstem4/-1161002137,31.77465,-106.38071,McDonalds,79925,TX,"http://mcdonalds.com,http://www.mcdonalds.com/?cid=RF:YXT_FM:TP::Yext:Referral"
450 N Harrison Ave,Shawnee,US,us/ok/shawnee/450nharrisonave/1780593795,35.33252,-96.91222,SONIC Drive In,74801,OK,https://locations.sonicdrivein.com/ok/shawnee/450-n--harrison.html
9455 SW Barbur Blvd,Portland,US,us/or/portland/9455swbarburblvd/-863563290,45.457027,-122.713696,Taco Time,97219,OR,http://www.tacotime.com/stores/6254
351 River Hill Dr,Ashland,US,us/ky/ashland/351riverhilldr/-1161002137,38.48554,-82.658096,McDonald's,41101,KY,"http://www.mcdonalds.com,http://www.mcdonalds.com/?cid=RF:YXT_FM:TP::Yext:Referral"
18000 Bagley Rd,Cleveland,US,us/oh/cleveland/18000bagleyrd/-2061630068,41.373042,-81.826072,Burger King,44130,OH,http://www.bk.com
3700 N 1st Ave,Evansville,US,us/in/evansville/3700n1stave/-1161002137,38.01322,-87.57549,McDonald's,47710,IN,"http://mcdonalds.com,http://www.mcdonalds.com/?cid=RF:YXT_FM:TP::Yext:Referral"
895 N Highway 77 Ste 300,Waxahachie,US,us/tx/waxahachie/895nhighway77ste300/-1947870258,32.41269,-96.84213,Jimmy John's,75165,TX,http://www.jimmyjohns.com